{
  "type": "FeatureCollection",
  "features": [
    {
      "type": "Feature",
      "properties": {
        "norad_id": 22490,
        "name": "SCD 1",
        "group": "resource",
        "lat": 4.413605363392686,
        "lon": 21.991670703488666,
        "alt_km": 735.7146906374765,
        "timestamp": "2025-12-23T14:49:08.985754+00:00",
        "meta_object_name": "SCD 1",
        "meta_object_id": "1993-009B",
        "meta_epoch": "2025-12-22T16:44:45.352896",
        "meta_mean_motion": 14.46005268,
        "meta_eccentricity": 0.0042167,
        "meta_inclination": 24.9679,
        "meta_ra_of_asc_node": 217.2144,
        "meta_arg_of_pericenter": 70.2904,
        "meta_mean_anomaly": 341.2341,
        "meta_ephemeris_type": 0,
        "meta_classification_type": "U",
        "meta_norad_cat_id": 22490,
        "meta_element_set_no": 999,
        "meta_rev_at_epoch": 73554,
        "meta_bstar": 7.1091153e-05,
        "meta_mean_motion_dot": 4.45e-06,
        "meta_mean_motion_ddot": 0,
        "tle_line1": "1 22490U 93009B   25356.69774714  .00000445  00000+0  71091-4 0  9998",
        "tle_line2": "2 22490  24.9679 217.2144 0042167  70.2904 341.2341 14.46005268735547"
      },
      "geometry": {
        "type": "Point",
        "coordinates": [
          21.991670703488666,
          4.413605363392686
        ]
      }
    },
    {
      "type": "Feature",
      "properties": {
        "norad_id": 25397,
        "name": "TECHSAT 1B (GO-32)",
        "group": "resource",
        "lat": 62.33662195475364,
        "lon": 178.66538339192496,
        "alt_km": 804.1818312765599,
        "timestamp": "2025-12-23T14:49:08.985787+00:00",
        "meta_object_name": "TECHSAT 1B (GO-32)",
        "meta_object_id": "1998-043D",
        "meta_epoch": "2025-12-23T05:50:46.136256",
        "meta_mean_motion": 14.24379829,
        "meta_eccentricity": 0.00017253,
        "meta_inclination": 98.9932,
        "meta_ra_of_asc_node": 340.6986,
        "meta_arg_of_pericenter": 40.4512,
        "meta_mean_anomaly": 319.6794,
        "meta_ephemeris_type": 0,
        "meta_classification_type": "U",
        "meta_norad_cat_id": 25397,
        "meta_element_set_no": 999,
        "meta_rev_at_epoch": 42628,
        "meta_bstar": 5.1678998e-05,
        "meta_mean_motion_dot": 7.3e-07,
        "meta_mean_motion_ddot": 0,
        "tle_line1": "1 25397U 98043D   25357.24358954  .00000073  00000+0  51679-4 0  9993",
        "tle_line2": "2 25397  98.9932 340.6986 0001725  40.4512 319.6794 14.24379829426285"
      },
      "geometry": {
        "type": "Point",
        "coordinates": [
          178.66538339192496,
          62.33662195475364
        ]
      }
    },
    {
      "type": "Feature",
      "properties": {
        "norad_id": 25504,
        "name": "SCD 2",
        "group": "resource",
        "lat": 0.6276884430520796,
        "lon": -106.52372613491781,
        "alt_km": 742.7262777253773,
        "timestamp": "2025-12-23T14:49:08.985804+00:00",
        "meta_object_name": "SCD 2",
        "meta_object_id": "1998-060A",
        "meta_epoch": "2025-12-23T05:50:04.452576",
        "meta_mean_motion": 14.45428767,
        "meta_eccentricity": 0.00170521,
        "meta_inclination": 24.9951,
        "meta_ra_of_asc_node": 77.1308,
        "meta_arg_of_pericenter": 64.3029,
        "meta_mean_anomaly": 322.0335,
        "meta_ephemeris_type": 0,
        "meta_classification_type": "U",
        "meta_norad_cat_id": 25504,
        "meta_element_set_no": 999,
        "meta_rev_at_epoch": 43484,
        "meta_bstar": 6.8342516e-05,
        "meta_mean_motion_dot": 4.26e-06,
        "meta_mean_motion_ddot": 0,
        "tle_line1": "1 25504U 98060A   25357.24310709  .00000426  00000+0  68343-4 0  9996",
        "tle_line2": "2 25504  24.9951  77.1308 0017052  64.3029 322.0335 14.45428767434842"
      },
      "geometry": {
        "type": "Point",
        "coordinates": [
          -106.52372613491781,
          0.6276884430520796
        ]
      }
    },
    {
      "type": "Feature",
      "properties": {
        "norad_id": 25757,
        "name": "DLR-TUBSAT",
        "group": "resource",
        "lat": -11.545176242597249,
        "lon": -15.74977746587299,
        "alt_km": 732.234515177749,
        "timestamp": "2025-12-23T14:49:08.985818+00:00",
        "meta_object_name": "DLR-TUBSAT",
        "meta_object_id": "1999-029B",
        "meta_epoch": "2025-12-17T13:22:10.787520",
        "meta_mean_motion": 14.52359578,
        "meta_eccentricity": 0.00141996,
        "meta_inclination": 98.6566,
        "meta_ra_of_asc_node": 336.2196,
        "meta_arg_of_pericenter": 177.8976,
        "meta_mean_anomaly": 182.2281,
        "meta_ephemeris_type": 0,
        "meta_classification_type": "U",
        "meta_norad_cat_id": 25757,
        "meta_element_set_no": 999,
        "meta_rev_at_epoch": 40688,
        "meta_bstar": 3.7650132e-05,
        "meta_mean_motion_dot": 1.05e-06,
        "meta_mean_motion_ddot": 0,
        "tle_line1": "1 25757U 99029B   25351.55706930  .00000105  00000+0  37650-4 0  9996",
        "tle_line2": "2 25757  98.6566 336.2196 0014199 177.8976 182.2281 14.52359578406886"
      },
      "geometry": {
        "type": "Point",
        "coordinates": [
          -15.74977746587299,
          -11.545176242597249
        ]
      }
    },
    {
      "type": "Feature",
      "properties": {
        "norad_id": 25994,
        "name": "TERRA",
        "group": "resource",
        "lat": 24.923988761630074,
        "lon": 45.16754102928838,
        "alt_km": 687.8386434582098,
        "timestamp": "2025-12-23T14:49:08.985832+00:00",
        "meta_object_name": "TERRA",
        "meta_object_id": "1999-068A",
        "meta_epoch": "2025-12-23T03:34:58.492704",
        "meta_mean_motion": 14.6091306,
        "meta_eccentricity": 0.00034695,
        "meta_inclination": 97.9733,
        "meta_ra_of_asc_node": 48.451,
        "meta_arg_of_pericenter": 73.6837,
        "meta_mean_anomaly": 10.827,
        "meta_ephemeris_type": 0,
        "meta_classification_type": "U",
        "meta_norad_cat_id": 25994,
        "meta_element_set_no": 999,
        "meta_rev_at_epoch": 38390,
        "meta_bstar": 0.00010325752,
        "meta_mean_motion_dot": 4.61e-06,
        "meta_mean_motion_ddot": 0,
        "tle_line1": "1 25994U 99068A   25357.14928811  .00000461  00000+0  10326-3 0  9992",
        "tle_line2": "2 25994  97.9733  48.4510 0003469  73.6837  10.8270 14.60913060383908"
      },
      "geometry": {
        "type": "Point",
        "coordinates": [
          45.16754102928838,
          24.923988761630074
        ]
      }
    },
    {
      "type": "Feature",
      "properties": {
        "norad_id": 27004,
        "name": "MAROC-TUBSAT",
        "group": "resource",
        "lat": 68.05165230399302,
        "lon": 140.87901367575142,
        "alt_km": 1005.3809445894831,
        "timestamp": "2025-12-23T14:49:08.985845+00:00",
        "meta_object_name": "MAROC-TUBSAT",
        "meta_object_id": "2001-056D",
        "meta_epoch": "2025-12-22T23:16:08.579136",
        "meta_mean_motion": 13.70253426,
        "meta_eccentricity": 0.00192245,
        "meta_inclination": 99.7916,
        "meta_ra_of_asc_node": 165.5937,
        "meta_arg_of_pericenter": 233.0099,
        "meta_mean_anomaly": 242.8791,
        "meta_ephemeris_type": 0,
        "meta_classification_type": "U",
        "meta_norad_cat_id": 27004,
        "meta_element_set_no": 999,
        "meta_rev_at_epoch": 20205,
        "meta_bstar": 2.50177e-05,
        "meta_mean_motion_dot": -2.5e-07,
        "meta_mean_motion_ddot": 0,
        "tle_line1": "1 27004U 01056D   25356.96954374 -.00000025  00000+0  25018-4 0  9990",
        "tle_line2": "2 27004  99.7916 165.5937 0019224 233.0099 242.8791 13.70253426202051"
      },
      "geometry": {
        "type": "Point",
        "coordinates": [
          140.87901367575142,
          68.05165230399302
        ]
      }
    },
    {
      "type": "Feature",
      "properties": {
        "norad_id": 27424,
        "name": "AQUA",
        "group": "resource",
        "lat": -62.42187795900702,
        "lon": -24.88106843198996,
        "alt_km": 695.497650358795,
        "timestamp": "2025-12-23T14:49:08.985858+00:00",
        "meta_object_name": "AQUA",
        "meta_object_id": "2002-022A",
        "meta_epoch": "2025-12-23T02:23:06.539136",
        "meta_mean_motion": 14.61823033,
        "meta_eccentricity": 0.00014844,
        "meta_inclination": 98.4053,
        "meta_ra_of_asc_node": 318.1475,
        "meta_arg_of_pericenter": 109.241,
        "meta_mean_anomaly": 342.3415,
        "meta_ephemeris_type": 0,
        "meta_classification_type": "U",
        "meta_norad_cat_id": 27424,
        "meta_element_set_no": 999,
        "meta_rev_at_epoch": 25754,
        "meta_bstar": 0.00019102714,
        "meta_mean_motion_dot": 9.05e-06,
        "meta_mean_motion_ddot": 0,
        "tle_line1": "1 27424U 02022A   25357.09938124  .00000905  00000+0  19103-3 0  9993",
        "tle_line2": "2 27424  98.4053 318.1475 0001484 109.2410 342.3415 14.61823033257549"
      },
      "geometry": {
        "type": "Point",
        "coordinates": [
          -24.88106843198996,
          -62.42187795900702
        ]
      }
    }
  ]
}